[{"OBJECT_NAME":"IRIDIUM 33 DEB","OBJECT_ID":"1997-051UT","EPOCH":"2026-03-02T13:47:03.333696","MEAN_MOTION":14.2054189,"ECCENTRICITY":0.021787,"INCLINATION":86.4405,"RA_OF_ASC_NODE":275.302,"ARG_OF_PERICENTER":7.8434,"MEAN_ANOMALY":352.6069,"EPHEMERIS_TYPE":0,"CLASSIFICATION_TYPE":"U","NORAD_CAT_ID":36012,"ELEMENT_SET_NO":999,"REV_AT_EPOCH":66617,"BSTAR":0.0017491,"MEAN_MOTION_DOT":4.793e-5,"MEAN_MOTION_DDOT":0},{"OBJECT_NAME":"IRIDIUM 33 DEB","OBJECT_ID":"1997-051VK","EPOCH":"2026-03-01T21:20:50.659872","MEAN_MOTION":14.99842236,"ECCENTRICITY":0.0017594,"INCLINATION":86.3146,"RA_OF_ASC_NODE":269.3331,"ARG_OF_PERICENTER":119.5716,"MEAN_ANOMALY":240.7272,"EPHEMERIS_TYPE":0,"CLASSIFICATION_TYPE":"U","NORAD_CAT_ID":36028,"ELEMENT_SET_NO":999,"REV_AT_EPOCH":88309,"BSTAR":0.0020734,"MEAN_MOTION_DOT":0.00025841,"MEAN_MOTION_DDOT":0},{"OBJECT_NAME":"IRIDIUM 33 DEB","OBJECT_ID":"1997-051VM","EPOCH":"2026-02-25T12:04:53.950080","MEAN_MOTION":14.47006283,"ECCENTRICITY":0.00148253,"INCLINATION":86.3236,"RA_OF_ASC_NODE":335.417,"ARG_OF_PERICENTER":275.8181,"MEAN_ANOMALY":84.1332,"EPHEMERIS_TYPE":0,"CLASSIFICATION_TYPE":"U","NORAD_CAT_ID":36080,"ELEMENT_SET_NO":999,"REV_AT_EPOCH":48495,"BSTAR":0.00052714098,"MEAN_MOTION_DOT":1.938e-5,"MEAN_MOTION_DDOT":0},{"OBJECT_NAME":"IRIDIUM 33 DEB","OBJECT_ID":"1997-051VQ","EPOCH":"2026-03-02T02:23:40.209216","MEAN_MOTION":14.43575491,"ECCENTRICITY":0.00253247,"INCLINATION":86.3485,"RA_OF_ASC_NODE":359.9819,"ARG_OF_PERICENTER":329.2153,"MEAN_ANOMALY":30.7561,"EPHEMERIS_TYPE":0,"CLASSIFICATION_TYPE":"U","NORAD_CAT_ID":36083,"ELEMENT_SET_NO":999,"REV_AT_EPOCH":86594,"BSTAR":0.0007113333,"MEAN_MOTION_DOT":2.437e-5,"MEAN_MOTION_DDOT":0},{"OBJECT_NAME":"IRIDIUM 33 DEB","OBJECT_ID":"1997-051VU","EPOCH":"2026-03-01T06:56:50.102592","MEAN_MOTION":14.74753978,"ECCENTRICITY":0.0027954,"INCLINATION":86.2859,"RA_OF_ASC_NODE":263.3476,"ARG_OF_PERICENTER":255.4751,"MEAN_ANOMALY":104.3366,"EPHEMERIS_TYPE":0,"CLASSIFICATION_TYPE":"U","NORAD_CAT_ID":36390,"ELEMENT_SET_NO":999,"REV_AT_EPOCH":67419,"BSTAR":0.00088857,"MEAN_MOTION_DOT":6.003e-5,"MEAN_MOTION_DDOT":0},{"OBJECT_NAME":"IRIDIUM 33 DEB","OBJECT_ID":"1997-051VZ","EPOCH":"2026-02-25T15:16:02.990208","MEAN_MOTION":14.46131522,"ECCENTRICITY":0.00070006,"INCLINATION":86.3812,"RA_OF_ASC_NODE":20.4101,"ARG_OF_PERICENTER":234.8466,"MEAN_ANOMALY":125.2081,"EPHEMERIS_TYPE":0,"CLASSIFICATION_TYPE":"U","NORAD_CAT_ID":36483,"ELEMENT_SET_NO":999,"REV_AT_EPOCH":66228,"BSTAR":0.00051908604,"MEAN_MOTION_DOT":1.873e-5,"MEAN_MOTION_DDOT":0},{"OBJECT_NAME":"IRIDIUM 33 DEB","OBJECT_ID":"1997-051WG","EPOCH":"2026-03-03T04:13:23.449440","MEAN_MOTION":14.7862377,"ECCENTRICITY":0.0004664,"INCLINATION":86.3687,"RA_OF_ASC_NODE":334.1251,"ARG_OF_PERICENTER":102.3921,"MEAN_ANOMALY":257.7821,"EPHEMERIS_TYPE":0,"CLASSIFICATION_TYPE":"U","NORAD_CAT_ID":36490,"ELEMENT_SET_NO":999,"REV_AT_EPOCH":87672,"BSTAR":0.0018734,"MEAN_MOTION_DOT":0.00013753,"MEAN_MOTION_DDOT":0},{"OBJECT_NAME":"IRIDIUM 33 DEB","OBJECT_ID":"1997-051WK","EPOCH":"2026-02-28T01:35:44.623680","MEAN_MOTION":14.66545736,"ECCENTRICITY":0.0013108,"INCLINATION":86.3608,"RA_OF_ASC_NODE":337.3012,"ARG_OF_PERICENTER":82.3547,"MEAN_ANOMALY":277.9154,"EPHEMERIS_TYPE":0,"CLASSIFICATION_TYPE":"U","NORAD_CAT_ID":36493,"ELEMENT_SET_NO":999,"REV_AT_EPOCH":75651,"BSTAR":0.001287788,"MEAN_MOTION_DOT":7.173e-5,"MEAN_MOTION_DDOT":0},{"OBJECT_NAME":"IRIDIUM 33 DEB","OBJECT_ID":"1997-051XH","EPOCH":"2026-02-27T14:47:44.378304","MEAN_MOTION":14.52027279,"ECCENTRICITY":0.00227949,"INCLINATION":86.3541,"RA_OF_ASC_NODE":9.8892,"ARG_OF_PERICENTER":300.6162,"MEAN_ANOMALY":59.2795,"EPHEMERIS_TYPE":0,"CLASSIFICATION_TYPE":"U","NORAD_CAT_ID":37548,"ELEMENT_SET_NO":999,"REV_AT_EPOCH":66647,"BSTAR":0.0010559446,"MEAN_MOTION_DOT":4.301e-5,"MEAN_MOTION_DDOT":0},{"OBJECT_NAME":"IRIDIUM 33 DEB","OBJECT_ID":"1997-051XK","EPOCH":"2026-03-01T01:50:01.039488","MEAN_MOTION":14.68650676,"ECCENTRICITY":0.00021408,"INCLINATION":86.3813,"RA_OF_ASC_NODE":349.1253,"ARG_OF_PERICENTER":143.8998,"MEAN_ANOMALY":216.2362,"EPHEMERIS_TYPE":0,"CLASSIFICATION_TYPE":"U","NORAD_CAT_ID":37550,"ELEMENT_SET_NO":999,"REV_AT_EPOCH":87482,"BSTAR":0.0014140176,"MEAN_MOTION_DOT":8.246e-5,"MEAN_MOTION_DDOT":0},{"OBJECT_NAME":"IRIDIUM 33 DEB","OBJECT_ID":"1997-051XX","EPOCH":"2026-03-02T14:40:19.153920","MEAN_MOTION":14.57426225,"ECCENTRICITY":0.0022579,"INCLINATION":86.3781,"RA_OF_ASC_NODE":8.7448,"ARG_OF_PERICENTER":191.3853,"MEAN_ANOMALY":292.3427,"EPHEMERIS_TYPE":0,"CLASSIFICATION_TYPE":"U","NORAD_CAT_ID":37562,"ELEMENT_SET_NO":999,"REV_AT_EPOCH":87491,"BSTAR":0.0013158,"MEAN_MOTION_DOT":6.01e-5,"MEAN_MOTION_DDOT":0},{"OBJECT_NAME":"IRIDIUM 33 DEB","OBJECT_ID":"1997-051YA","EPOCH":"2026-02-28T12:04:02.447040","MEAN_MOTION":14.51968224,"ECCENTRICITY":0.00124493,"INCLINATION":86.3534,"RA_OF_ASC_NODE":335.7057,"ARG_OF_PERICENTER":170.3944,"MEAN_ANOMALY":189.7502,"EPHEMERIS_TYPE":0,"CLASSIFICATION_TYPE":"U","NORAD_CAT_ID":37565,"ELEMENT_SET_NO":999,"REV_AT_EPOCH":66965,"BSTAR":0.00053799697,"MEAN_MOTION_DOT":2.193e-5,"MEAN_MOTION_DDOT":0},{"OBJECT_NAME":"IRIDIUM 33 DEB","OBJECT_ID":"1997-051YD","EPOCH":"2026-03-02T14:56:56.613408","MEAN_MOTION":14.51760866,"ECCENTRICITY":0.0091891,"INCLINATION":86.3392,"RA_OF_ASC_NODE":131.4108,"ARG_OF_PERICENTER":196.0103,"MEAN_ANOMALY":163.8195,"EPHEMERIS_TYPE":0,"CLASSIFICATION_TYPE":"U","NORAD_CAT_ID":38017,"ELEMENT_SET_NO":999,"REV_AT_EPOCH":62560,"BSTAR":0.0024884,"MEAN_MOTION_DOT":0.00010593,"MEAN_MOTION_DDOT":0},{"OBJECT_NAME":"IRIDIUM 33 DEB","OBJECT_ID":"1997-051YJ","EPOCH":"2026-02-25T12:48:22.728960","MEAN_MOTION":14.41987333,"ECCENTRICITY":0.0044157,"INCLINATION":86.273,"RA_OF_ASC_NODE":343.6792,"ARG_OF_PERICENTER":157.1219,"MEAN_ANOMALY":203.1962,"EPHEMERIS_TYPE":0,"CLASSIFICATION_TYPE":"U","NORAD_CAT_ID":38022,"ELEMENT_SET_NO":999,"REV_AT_EPOCH":70271,"BSTAR":0.00095268,"MEAN_MOTION_DOT":3.179e-5,"MEAN_MOTION_DDOT":0},{"OBJECT_NAME":"IRIDIUM 33 DEB","OBJECT_ID":"1997-051YQ","EPOCH":"2026-02-25T01:19:48.939456","MEAN_MOTION":14.46466531,"ECCENTRICITY":0.0026047,"INCLINATION":86.3278,"RA_OF_ASC_NODE":327.9721,"ARG_OF_PERICENTER":233.9975,"MEAN_ANOMALY":125.8813,"EPHEMERIS_TYPE":0,"CLASSIFICATION_TYPE":"U","NORAD_CAT_ID":38028,"ELEMENT_SET_NO":999,"REV_AT_EPOCH":66569,"BSTAR":0.00024955643,"MEAN_MOTION_DOT":9.21e-6,"MEAN_MOTION_DDOT":0},{"OBJECT_NAME":"IRIDIUM 33 DEB","OBJECT_ID":"1997-051ZC","EPOCH":"2026-02-27T14:55:57.152928","MEAN_MOTION":14.27429375,"ECCENTRICITY":0.00625345,"INCLINATION":86.2968,"RA_OF_ASC_NODE":15.7717,"ARG_OF_PERICENTER":304.9916,"MEAN_ANOMALY":181.5066,"EPHEMERIS_TYPE":0,"CLASSIFICATION_TYPE":"U","NORAD_CAT_ID":38228,"ELEMENT_SET_NO":999,"REV_AT_EPOCH":85878,"BSTAR":0.00033141096,"MEAN_MOTION_DOT":8.48e-6,"MEAN_MOTION_DDOT":0}]
